[{"OBJECT_NAME":"JILIN-1 GAOFEN 03D48","OBJECT_ID":"2022-167P","EPOCH":"2026-03-09T23:48:37.804608","MEAN_MOTION":15.32947339,"ECCENTRICITY":0.00075954,"INCLINATION":97.6781,"RA_OF_ASC_NODE":234.4968,"ARG_OF_PERICENTER":111.3084,"MEAN_ANOMALY":248.8969,"EPHEMERIS_TYPE":0,"CLASSIFICATION_TYPE":"U","NORAD_CAT_ID":54695,"ELEMENT_SET_NO":999,"REV_AT_EPOCH":18018,"BSTAR":0.00049677114,"MEAN_MOTION_DOT":0.00015755,"MEAN_MOTION_DDOT":0},{"OBJECT_NAME":"STARLINK-32251","OBJECT_ID":"2024-155S","EPOCH":"2026-03-09T10:54:25.179840","MEAN_MOTION":15.30187692,"ECCENTRICITY":0.00011652,"INCLINATION":53.1599,"RA_OF_ASC_NODE":130.8472,"ARG_OF_PERICENTER":85.1457,"MEAN_ANOMALY":274.9676,"EPHEMERIS_TYPE":0,"CLASSIFICATION_TYPE":"U","NORAD_CAT_ID":60940,"ELEMENT_SET_NO":999,"REV_AT_EPOCH":8630,"BSTAR":6.2327333e-5,"MEAN_MOTION_DOT":1.487e-5,"MEAN_MOTION_DDOT":0}]
